     2.10           G: GLONASS NAV DATA                     RINEX VERSION / TYPE
teqc  2015Jun23                         20220317 01:25:41UTCPGM / RUN BY / DATE
Linux 2.4.21-27.ELsmp|Opteron|gcc -static|Linux x86_64|=+   COMMENT
  2022     2    21    2.654269337654D-08                    CORR TO SYSTEM TIME
                                                            END OF HEADER
15 22  2 22 17 45  0.0 9.801238775253D-05-0.000000000000D+00 6.375000000000D+04
    6.011485351562D+03-2.985457420349D+00-9.313225746155D-10 0.000000000000D+00
    1.140277587891D+04-4.223203659058D-01-0.000000000000D+00 0.000000000000D+00
   -2.199924658203D+04-1.033638000488D+00 2.793967723846D-09 0.000000000000D+00
24 22  2 22 18 15  0.0 8.139386773109D-05 1.818989403546D-12 6.480000000000D+04
   -1.469277294922D+04 1.473983764648D+00-3.725290298462D-09 0.000000000000D+00
    6.543418945312D+03-2.280651092529D+00 9.313225746155D-10 2.000000000000D+00
   -1.977573388672D+04-1.848480224609D+00 9.313225746155D-10 0.000000000000D+00
 3 22  2 22 18 15  0.0 5.196128040552D-05 9.094947017729D-13 6.480000000000D+04
   -5.264639160156D+03-1.461268424988D+00 0.000000000000D+00 0.000000000000D+00
    1.178433886719D+04-2.628341674805D+00 0.000000000000D+00 5.000000000000D+00
    2.205753857422D+04 1.052331924438D+00-2.793967723846D-09 0.000000000000D+00
 4 22  2 22 18 15  0.0 1.289034262300D-04 1.818989403546D-12 6.480000000000D+04
    6.477020507812D+03-6.273155212402D-01-0.000000000000D+00 0.000000000000D+00
    2.193936083984D+04-1.422713279724D+00-0.000000000000D+00 6.000000000000D+00
    1.132774365234D+04 3.121011734009D+00-9.313225746155D-10 0.000000000000D+00
 5 22  2 22 18 15  0.0 8.819624781609D-05 9.094947017729D-13 6.480000000000D+04
    1.456039306641D+04 5.454702377319D-01-0.000000000000D+00 0.000000000000D+00
    2.016992236328D+04 5.878219604492D-01-9.313225746155D-10 1.000000000000D+00
   -5.689778320312D+03 3.469420433044D+00 9.313225746155D-10 0.000000000000D+00
14 22  2 22 18 15  0.0 7.465202361345D-05 0.000000000000D+00 6.480000000000D+04
   -1.752799902344D+04-2.272721290588D+00-3.725290298462D-09 0.000000000000D+00
    8.224458984375D+03 1.179265975952D-01 1.862645149231D-09-7.000000000000D+00
   -1.660784716797D+04 2.455260276794D+00 0.000000000000D+00 0.000000000000D+00
15 22  2 22 18 15  0.0 9.801145642996D-05-0.000000000000D+00 6.480000000000D+04
    4.442207031250D+02-3.149910926819D+00-1.862645149231D-09 0.000000000000D+00
    1.102678710938D+04 1.388168334961D-02 0.000000000000D+00 0.000000000000D+00
   -2.298433935547D+04-5.377674102783D-02 1.862645149231D-09 0.000000000000D+00
17 22  2 22 18 15  0.0 5.039153620601D-04 2.728484105319D-12 6.480000000000D+04
   -1.468305419922D+04 5.889911651611D-01-3.725290298462D-09 0.000000000000D+00
    2.000989013672D+04-5.812177658081D-01 9.313225746155D-10 4.000000000000D+00
   -5.807242187500D+03-3.487714767456D+00-0.000000000000D+00 0.000000000000D+00
18 22  2 22 18 15  0.0 1.081498339772D-04 1.818989403546D-12 6.480000000000D+04
   -7.235042968750D+03-5.745248794556D-01-9.313225746155D-10 0.000000000000D+00
    2.190513281250D+04 1.401748657227D+00 0.000000000000D+00-3.000000000000D+00
    1.096748144531D+04-3.178421020508D+00-1.862645149231D-09 0.000000000000D+00
19 22  2 22 18 15  0.0-1.791529357433D-04-9.094947017729D-13 6.534000000000D+04
    3.019733398438D+03-1.491437911987D+00 9.313225746155D-10 0.000000000000D+00
    1.322127587891D+04 2.562517166138D+00-0.000000000000D+00 3.000000000000D+00
    2.160801074219D+04-1.359335899353D+00-1.862645149231D-09 0.000000000000D+00
19 22  2 22 18 45  0.0-1.791547983885D-04-9.094947017729D-13 6.660000000000D+04
    8.633950195312D+02-9.014425277710D-01-0.000000000000D+00 0.000000000000D+00
    1.769395458984D+04 2.356096267700D+00 0.000000000000D+00 3.000000000000D+00
    1.835789550781D+04-2.228477478027D+00-1.862645149231D-09 0.000000000000D+00
 4 22  2 22 18 45  0.0 1.289071515203D-04 1.818989403546D-12 6.660000000000D+04
    4.790208007812D+03-1.256839752197D+00 0.000000000000D+00 0.000000000000D+00
    1.894062597656D+04-1.864682197571D+00-0.000000000000D+00 6.000000000000D+00
    1.643624414062D+04 2.518398284912D+00-9.313225746155D-10 0.000000000000D+00
 5 22  2 22 18 45  0.0 8.819811046124D-05 9.094947017729D-13 6.660000000000D+04
    1.516946582031D+04 9.383392333984D-02-0.000000000000D+00 0.000000000000D+00
    2.051327246094D+04-1.883668899536D-01-0.000000000000D+00 1.000000000000D+00
    6.942939453125D+02 3.577983856201D+00 0.000000000000D+00 0.000000000000D+00
14 22  2 22 18 45  0.0 7.465202361345D-05 0.000000000000D+00 6.660000000000D+04
   -2.100039355469D+04-1.556193351746D+00-2.793967723846D-09 0.000000000000D+00
    8.668296875000D+03 3.412914276123D-01 1.862645149231D-09-7.000000000000D+00
   -1.160351220703D+04 3.068997383118D+00-0.000000000000D+00 0.000000000000D+00
15 22  2 22 18 45  0.0 9.801145642996D-05-0.000000000000D+00 6.660000000000D+04
   -5.143250488281D+03-3.007699012756D+00-2.793967723846D-09 0.000000000000D+00
    1.145399218750D+04 4.521408081055D-01 9.313225746155D-10 0.000000000000D+00
   -2.219029345703D+04 9.303236007690D-01 1.862645149231D-09 0.000000000000D+00
17 22  2 22 18 45  0.0 5.039209499955D-04 2.728484105319D-12 6.660000000000D+04
   -1.339215673828D+04 8.013000488281D-01-3.725290298462D-09 0.000000000000D+00
    1.820910937500D+04-1.418819427490D+00 1.862645149231D-09 4.000000000000D+00
   -1.177879052734D+04-3.104148864746D+00 0.000000000000D+00 0.000000000000D+00
18 22  2 22 18 45  0.0 1.081535592675D-04 1.818989403546D-12 6.660000000000D+04
   -7.762656250000D+03-3.913593292236D-02-1.862645149231D-09 0.000000000000D+00
    2.383611132812D+04 7.094497680664D-01 9.313225746155D-10-3.000000000000D+00
    4.897640625000D+03-3.522239685059D+00-9.313225746155D-10 0.000000000000D+00
 5 22  2 22 19 15  0.0 8.819997310638D-05 9.094947017729D-13 6.840000000000D+04
    1.478360693359D+04-5.475864410400D-01-0.000000000000D+00 0.000000000000D+00
    1.958599755859D+04-8.085374832153D-01-0.000000000000D+00 1.000000000000D+00
    7.024796386719D+03 3.410318374634D+00-0.000000000000D+00 0.000000000000D+00
17 22  2 22 19 15  0.0 5.039265379310D-04 2.728484105319D-12 6.840000000000D+04
   -1.195614111328D+04 7.522401809692D-01-2.793967723846D-09 0.000000000000D+00
    1.494114501953D+04-2.191653251648D+00 1.862645149231D-09 4.000000000000D+00
   -1.683748046875D+04-2.480052947998D+00 0.000000000000D+00 0.000000000000D+00
 4 22  2 22 19 15  0.0 1.289108768106D-04 1.818989403546D-12 6.840000000000D+04
    1.950065917969D+03-1.890076637268D+00 0.000000000000D+00 0.000000000000D+00
    1.539531982422D+04-2.026845932007D+00 0.000000000000D+00 6.000000000000D+00
    2.027739257812D+04 1.721972465515D+00-1.862645149231D-09 0.000000000000D+00
14 22  2 22 19 15  0.0 7.465295493603D-05 0.000000000000D+00 6.840000000000D+04
   -2.305594775391D+04-7.163467407227D-01-1.862645149231D-09 0.000000000000D+00
    9.316604492188D+03 3.385543823242D-01 2.793967723846D-09-7.000000000000D+00
   -5.702208007812D+03 3.445432662964D+00-9.313225746155D-10 0.000000000000D+00
15 22  2 22 19 15  0.0 9.801052510738D-05-0.000000000000D+00 6.840000000000D+04
   -1.021175830078D+04-2.580710411072D+00-2.793967723846D-09 0.000000000000D+00
    1.259256933594D+04 7.877950668335D-01 1.862645149231D-09 0.000000000000D+00
   -1.967848535156D+04 1.842428207397D+00 9.313225746155D-10 0.000000000000D+00
18 22  2 22 19 15  0.0 1.081563532352D-04 9.094947017729D-13 6.840000000000D+04
   -7.497399902344D+03 2.950887680054D-01-2.793967723846D-09 0.000000000000D+00
    2.436382958984D+04-1.408004760742D-01 1.862645149231D-09-3.000000000000D+00
   -1.549416503906D+03-3.594816207886D+00-9.313225746155D-10 0.000000000000D+00
19 22  2 22 19 15  0.0-1.791585236788D-04-9.094947017729D-13 6.840000000000D+04
   -2.488608398438D+02-3.500900268555D-01-9.313225746155D-10 0.000000000000D+00
    2.152617089844D+04 1.856172561646D+00 0.000000000000D+00 3.000000000000D+00
    1.368903906250D+04-2.925481796265D+00-1.862645149231D-09 0.000000000000D+00
 5 22  2 22 19 45  0.0 8.820090442896D-05 9.094947017729D-13 7.020000000000D+04
    1.313781396484D+04-1.288874626160D+00-0.000000000000D+00 0.000000000000D+00
    1.774236816406D+04-1.197036743164D+00-0.000000000000D+00 1.000000000000D+00
    1.281315087891D+04 2.979520797729D+00-9.313225746155D-10 0.000000000000D+00
17 22  2 22 19 45  0.0 5.039321258664D-04 2.728484105319D-12 7.020000000000D+04
   -1.082089746094D+04 4.765310287476D-01-2.793967723846D-09 0.000000000000D+00
    1.042543603516D+04-2.788217544556D+00 1.862645149231D-09 4.000000000000D+00
   -2.059149072266D+04-1.663976669312D+00 9.313225746155D-10 0.000000000000D+00
 4 22  2 22 19 45  0.0 1.289146021008D-04 1.818989403546D-12 7.020000000000D+04
   -1.949166503906D+03-2.415601730347D+00 0.000000000000D+00 0.000000000000D+00
    1.181022363281D+04-1.913444519043D+00 0.000000000000D+00 6.000000000000D+00
    2.255566992188D+04 7.930917739868D-01-2.793967723846D-09 0.000000000000D+00
14 22  2 22 19 45  0.0 7.465388625860D-05 0.000000000000D+00 7.020000000000D+04
   -2.357302148438D+04 1.338901519775D-01-9.313225746155D-10 0.000000000000D+00
    9.740038574219D+03 9.224033355713D-02 2.793967723846D-09-7.000000000000D+00
    6.398291015625D+02 3.555534362793D+00-1.862645149231D-09 0.000000000000D+00
15 22  2 22 19 45  0.0 9.800959378481D-05-0.000000000000D+00 7.020000000000D+04
   -1.430100341797D+04-1.933472633362D+00-2.793967723846D-09 0.000000000000D+00
    1.417561328125D+04 9.338312149048D-01 2.793967723846D-09 0.000000000000D+00
   -1.564337011719D+04 2.611874580383D+00 0.000000000000D+00 0.000000000000D+00
18 22  2 22 19 45  0.0 1.081600785255D-04 9.094947017729D-13 7.020000000000D+04
   -6.850299804688D+03 3.809185028076D-01-2.793967723846D-09 0.000000000000D+00
    2.330050195312D+04-1.038607597351D+00 2.793967723846D-09-3.000000000000D+00
   -7.877029296875D+03-3.390325546265D+00-0.000000000000D+00 0.000000000000D+00
